OBJECT_NAME,OBJECT_ID,EPOCH,MEAN_MOTION,ECCENTRICITY,INCLINATION,RA_OF_ASC_NODE,ARG_OF_PERICENTER,MEAN_ANOMALY,EPHEMERIS_TYPE,CLASSIFICATION_TYPE,NORAD_CAT_ID,ELEMENT_SET_NO,REV_AT_EPOCH,BSTAR,MEAN_MOTION_DOT,MEAN_MOTION_DDOT
BEIDOU-3S IGSO-1S (C31),2015-019A,2026-07-02T19:12:21.705408,1.00680073,.00768606,49.1798,295.2769,219.1125,144.2493,0,U,40549,999,4123,0,-.19E-5,0
GPS BIIF-10 (PRN 08),2015-033A,2026-07-14T15:27:16.401312,2.00554823,.01153416,53.9615,265.9533,30.2916,330.4522,0,U,40730,999,8054,0,.3E-7,0
BEIDOU-3S M2S (C58),2015-037A,2026-07-14T16:59:15.724032,1.86232026,.00094173,54.8448,301.0992,256.9045,103.0206,0,U,40748,999,7463,0,-.67E-6,0
BEIDOU-3S M1S (C57),2015-037B,2026-07-14T08:59:57.372576,1.86254768,.00027716,54.8414,301.0972,63.4043,296.6528,0,U,40749,999,7463,0,-.66E-6,0
GSAT0206 (GALILEO 10),2015-045B,2026-07-14T10:33:44.988192,1.70473502,.00021594,54.9389,220.8513,328.3003,31.7529,0,U,40890,999,6750,0,.65E-6,0
BEIDOU-3S IGSO-2S (C56),2015-053A,2026-07-15T03:32:44.274624,1.00252631,.0066249,49.1789,258.4479,193.1115,347.9978,0,U,40938,999,3963,0,-.91E-6,0
GPS BIIF-11 (PRN 10),2015-062A,2026-07-13T04:52:25.128768,2.00566902,.01127742,56.9770,29.8096,230.8892,128.1524,0,U,41019,999,7835,0,-.56E-6,0
GSAT-15 (GAGAN/PRN 139),2015-065A,2026-07-14T08:43:42.352896,1.00267881,.00035804,0.0277,63.4769,29.8725,63.3157,0,U,41028,999,3907,0,0,0
GSAT0209 (GALILEO 12),2015-079A,2026-07-14T00:31:25.953024,1.70473559,.00047936,55.8424,100.5256,355.0835,4.9328,0,U,41174,999,6523,0,-.29E-6,0
GSAT0208 (GALILEO 11),2015-079B,2026-07-13T01:39:24.107328,1.70473434,.0004537,55.8391,100.5488,14.0255,346.0022,0,U,41175,999,6563,0,-.3E-6,0
IRNSS-1E,2016-003A,2026-07-13T01:01:03.714240,1.00278688,.00189772,33.2887,59.3748,176.6620,181.8769,0,U,41241,999,3833,0,-.321E-5,0
GPS BIIF-12 (PRN 32),2016-007A,2026-07-13T07:04:03.958464,2.00575425,.0096616,55.5398,88.4243,247.6192,111.3962,0,U,41328,999,7636,0,-.32E-6,0
COSMOS 2514 (751),2016-008A,2026-07-14T23:18:59.855040,2.13102507,.0012301,65.0033,312.0531,201.1240,158.8381,0,U,41330,999,8121,0,-.61E-6,0
BEIDOU-2 IGSO-6 (C13),2016-021A,2026-06-26T02:38:38.671584,1.00258926,.0057558,60.2385,37.9495,231.0163,137.2672,0,U,41434,999,3757,0,-.145E-5,0
IRNSS-1G,2016-027A,2026-07-14T17:30:35.997984,1.00271137,.0006006,5.2616,96.8380,11.1116,216.9679,0,U,41469,999,3745,0,-.346E-5,0
GSAT0211 (GALILEO 14),2016-030A,2026-07-14T08:46:46.904160,1.70473656,.00033839,55.0898,220.9468,318.5013,41.5401,0,U,41549,999,6313,0,.66E-6,0
GSAT0210 (GALILEO 13),2016-030B,2026-07-14T14:57:12.474720,1.70473871,.0004719,55.0888,220.9379,246.1345,113.8809,0,U,41550,999,6313,0,.64E-6,0
BEIDOU-2 G7 (C03),2016-037A,2026-07-15T01:46:51.773376,1.00273474,.0005907,1.7865,69.4894,359.5962,1.0986,0,U,41586,999,716,0,-.364E-5,0
EUTELSAT 117 WEST B (WAAS/PRN 131),2016-038B,2026-07-13T22:07:27.213600,1.00269922,.00002666,0.0083,162.9812,316.7358,26.9360,0,U,41589,999,3693,0,-.17E-6,0
GSAT0207 (GALILEO 15),2016-069A,2026-07-11T23:14:54.714048,1.70473524,.0004522,55.5126,100.4004,339.9754,20.0172,0,U,41859,999,5982,0,-.3E-6,0
GSAT0212 (GALILEO 16),2016-069B,2026-07-14T18:07:16.719168,1.70473579,.0004384,55.5126,100.3182,15.0007,345.0381,0,U,41860,999,6012,0,-.28E-6,0
GSAT0213 (GALILEO 17),2016-069C,2026-07-13T08:41:54.440160,1.70474037,.00041264,55.5134,100.3648,318.6741,41.3115,0,U,41861,999,5996,0,-.31E-6,0
GSAT0214 (GALILEO 18),2016-069D,2026-07-14T02:17:14.544672,1.70473685,.00032961,55.5122,100.3371,333.1197,26.8847,0,U,41862,999,6010,0,-.3E-6,0
SES-15 (WAAS/PRN 133),2017-026A,2026-07-15T00:46:50.039040,1.00268637,.0000276,0.0255,332.5228,128.9444,73.9557,0,U,42709,999,771,0,.51E-6,0
QZS-2 (QZSS/PRN 194),2017-028A,2026-07-14T10:42:39.613248,1.00276942,.07575565,39.3876,242.7519,269.5906,83.0468,0,U,42738,999,790,0,-.12E-5,0
QZS-3 (QZSS/PRN 199),2017-048A,2026-07-15T00:07:56.051904,1.00272188,.000251,0.0657,214.5440,272.0036,295.3328,0,U,42917,999,3253,0,-.357E-5,0
COSMOS 2522 (752),2017-055A,2026-07-14T08:09:28.372608,2.13101791,.00109395,64.0806,190.9601,240.7377,119.1613,0,U,42939,999,6855,0,.64E-6,0
QZS-4 (QZSS/PRN 195),2017-062A,2026-07-12T17:38:03.472224,1.00290649,.07474587,40.0933,343.1604,268.5188,82.4158,0,U,42965,999,3205,0,-.331E-5,0
BEIDOU-3 M1 (C19),2017-069A,2026-07-13T23:32:27.354624,1.86230799,.00092614,56.7152,62.2026,328.5665,31.4523,0,U,43001,999,5910,0,-.38E-6,0
BEIDOU-3 M2 (C20),2017-069B,2026-07-14T23:50:46.422240,1.86230637,.0008576,56.7152,62.2056,355.1932,4.8736,0,U,43002,999,5911,0,-.4E-6,0
GSAT0215 (GALILEO 19),2017-079A,2026-07-15T04:06:51.886368,1.70474281,.0003831,55.0676,220.7362,269.4103,90.6058,0,U,43055,999,5346,0,.59E-6,0
